{"type": "FeatureCollection", "features": [{"type": "Feature", "properties": {"norad_id": 66422, "name": "STARLINK-35617", "group": "last-30-days", "lat": 1.3056285248877542, "lon": 56.92492431404891, "alt_km": 443.3452193755793, "timestamp": "2025-12-11T10:53:14.618670+00:00", "meta": {"OBJECT_NAME": "STARLINK-35617", "OBJECT_ID": "2025-259A", "EPOCH": "2025-12-11T04:39:21.000384", "MEAN_MOTION": 15.4074504, "ECCENTRICITY": 0.0001294, "INCLINATION": 43.0008, "RA_OF_ASC_NODE": 57.0202, "ARG_OF_PERICENTER": 274.2022, "MEAN_ANOMALY": 85.8686, "EPHEMERIS_TYPE": 0, "CLASSIFICATION_TYPE": "U", "NORAD_CAT_ID": 66422, "ELEMENT_SET_NO": 999, "REV_AT_EPOCH": 592, "BSTAR": 0.0016502, "MEAN_MOTION_DOT": 0.00069363, "MEAN_MOTION_DDOT": 0}, "tle": {"line1": "1 66422U 25259A   25345.19399306  .00069363  00000+0  16502-2 0  9994", "line2": "2 66422  43.0008  57.0202 0001294 274.2022  85.8686 15.40745040  5925"}}, "geometry": {"type": "Point", "coordinates": [56.92492431404891, 1.3056285248877542]}}, {"type": "Feature", "properties": {"norad_id": 66423, "name": "STARLINK-35618", "group": "last-30-days", "lat": 9.745931083304054, "lon": 66.11520156764011, "alt_km": 442.0117435269676, "timestamp": "2025-12-11T10:53:14.618747+00:00", "meta": {"OBJECT_NAME": "STARLINK-35618", "OBJECT_ID": "2025-259B", "EPOCH": "2025-12-10T22:22:43.323168", "MEAN_MOTION": 15.40714658, "ECCENTRICITY": 9.43e-05, "INCLINATION": 43.0006, "RA_OF_ASC_NODE": 58.4984, "ARG_OF_PERICENTER": 292.4656, "MEAN_ANOMALY": 67.6101, "EPHEMERIS_TYPE": 0, "CLASSIFICATION_TYPE": "U", "NORAD_CAT_ID": 66423, "ELEMENT_SET_NO": 999, "REV_AT_EPOCH": 588, "BSTAR": 0.0021476, "MEAN_MOTION_DOT": 0.00090522, "MEAN_MOTION_DDOT": 0}, "tle": {"line1": "1 66423U 25259B   25344.93244587  .00090522  00000+0  21476-2 0  9993", "line2": "2 66423  43.0006  58.4984 0000943 292.4656  67.6101 15.40714658  5887"}}, "geometry": {"type": "Point", "coordinates": [66.11520156764011, 9.745931083304054]}}, {"type": "Feature", "properties": {"norad_id": 66424, "name": "STARLINK-35588", "group": "last-30-days", "lat": 17.901394399407685, "lon": 75.74618996833328, "alt_km": 441.0322674651734, "timestamp": "2025-12-11T10:53:14.618766+00:00", "meta": {"OBJECT_NAME": "STARLINK-35588", "OBJECT_ID": "2025-259C", "EPOCH": "2025-12-11T04:32:54.083040", "MEAN_MOTION": 15.40751626, "ECCENTRICITY": 3.3e-05, "INCLINATION": 42.9993, "RA_OF_ASC_NODE": 56.9863, "ARG_OF_PERICENTER": 277.9644, "MEAN_ANOMALY": 82.1175, "EPHEMERIS_TYPE": 0, "CLASSIFICATION_TYPE": "U", "NORAD_CAT_ID": 66424, "ELEMENT_SET_NO": 999, "REV_AT_EPOCH": 592, "BSTAR": 0.0014404, "MEAN_MOTION_DOT": 0.00060446, "MEAN_MOTION_DDOT": 0}, "tle": {"line1": "1 66424U 25259C   25345.18951485  .00060446  00000+0  14404-2 0  9999", "line2": "2 66424  42.9993  56.9863 0000330 277.9644  82.1175 15.40751626  5929"}}, "geometry": {"type": "Point", "coordinates": [75.74618996833328, 17.901394399407685]}}, {"type": "Feature", "properties": {"norad_id": 66425, "name": "STARLINK-35555", "group": "last-30-days", "lat": 25.57050925255737, "lon": 86.33411871455911, "alt_km": 438.9513478462968, "timestamp": "2025-12-11T10:53:14.618779+00:00", "meta": {"OBJECT_NAME": "STARLINK-35555", "OBJECT_ID": "2025-259D", "EPOCH": "2025-12-11T04:29:40.718112", "MEAN_MOTION": 15.40776159, "ECCENTRICITY": 9.64e-05, "INCLINATION": 42.9968, "RA_OF_ASC_NODE": 56.9701, "ARG_OF_PERICENTER": 27.9928, "MEAN_ANOMALY": 332.098, "EPHEMERIS_TYPE": 0, "CLASSIFICATION_TYPE": "U", "NORAD_CAT_ID": 66425, "ELEMENT_SET_NO": 999, "REV_AT_EPOCH": 592, "BSTAR": 0.0026275, "MEAN_MOTION_DOT": 0.0011135, "MEAN_MOTION_DDOT": 0}, "tle": {"line1": "1 66425U 25259D   25345.18727683  .00111350  00000+0  26275-2 0  9991", "line2": "2 66425  42.9968  56.9701 0000964  27.9928 332.0980 15.40776159  5923"}}, "geometry": {"type": "Point", "coordinates": [86.33411871455911, 25.57050925255737]}}, {"type": "Feature", "properties": {"norad_id": 66426, "name": "STARLINK-35589", "group": "last-30-days", "lat": 32.34485862652175, "lon": 98.21598358196933, "alt_km": 438.9548196906471, "timestamp": "2025-12-11T10:53:14.618792+00:00", "meta": {"OBJECT_NAME": "STARLINK-35589", "OBJECT_ID": "2025-259E", "EPOCH": "2025-12-10T22:13:02.675424", "MEAN_MOTION": 15.40713173, "ECCENTRICITY": 5.02e-05, "INCLINATION": 42.9984, "RA_OF_ASC_NODE": 58.4453, "ARG_OF_PERICENTER": 250.5262, "MEAN_ANOMALY": 109.554, "EPHEMERIS_TYPE": 0, "CLASSIFICATION_TYPE": "U", "NORAD_CAT_ID": 66426, "ELEMENT_SET_NO": 999, "REV_AT_EPOCH": 588, "BSTAR": 0.0016219, "MEAN_MOTION_DOT": 0.00068084, "MEAN_MOTION_DDOT": 0}, "tle": {"line1": "1 66426U 25259E   25344.92572541  .00068084  00000+0  16219-2 0  9996", "line2": "2 66426  42.9984  58.4453 0000502 250.5262 109.5540 15.40713173  5887"}}, "geometry": {"type": "Point", "coordinates": [98.21598358196933, 32.34485862652175]}}, {"type": "Feature", "properties": {"norad_id": 66427, "name": "STARLINK-35611", "group": "last-30-days", "lat": 37.77852271356819, "lon": 111.68691975310566, "alt_km": 436.83581209071326, "timestamp": "2025-12-11T10:53:14.618804+00:00", "meta": {"OBJECT_NAME": "STARLINK-35611", "OBJECT_ID": "2025-259F", "EPOCH": "2025-12-10T22:09:50.749920", "MEAN_MOTION": 15.40678716, "ECCENTRICITY": 0.0001626, "INCLINATION": 42.9897, "RA_OF_ASC_NODE": 58.4322, "ARG_OF_PERICENTER": 74.87, "MEAN_ANOMALY": 285.2336, "EPHEMERIS_TYPE": 0, "CLASSIFICATION_TYPE": "U", "NORAD_CAT_ID": 66427, "ELEMENT_SET_NO": 999, "REV_AT_EPOCH": 588, "BSTAR": 0.0014243, "MEAN_MOTION_DOT": 0.0005962, "MEAN_MOTION_DDOT": 0}, "tle": {"line1": "1 66427U 25259F   25344.92350405  .00059620  00000+0  14243-2 0  9991", "line2": "2 66427  42.9897  58.4322 0001626  74.8700 285.2336 15.40678716  5886"}}, "geometry": {"type": "Point", "coordinates": [111.68691975310566, 37.77852271356819]}}, {"type": "Feature", "properties": {"norad_id": 66428, "name": "STARLINK-35610", "group": "last-30-days", "lat": 41.55330668230122, "lon": 127.38427185112326, "alt_km": 437.7869657861147, "timestamp": "2025-12-11T10:53:14.618815+00:00", "meta": {"OBJECT_NAME": "STARLINK-35610", "OBJECT_ID": "2025-259G", "EPOCH": "2025-12-10T22:06:35.350272", "MEAN_MOTION": 15.40725826, "ECCENTRICITY": 0.0001048, "INCLINATION": 42.9976, "RA_OF_ASC_NODE": 58.4108, "ARG_OF_PERICENTER": 271.5958, "MEAN_ANOMALY": 88.4779, "EPHEMERIS_TYPE": 0, "CLASSIFICATION_TYPE": "U", "NORAD_CAT_ID": 66428, "ELEMENT_SET_NO": 999, "REV_AT_EPOCH": 588, "BSTAR": 0.0018896, "MEAN_MOTION_DOT": 0.00079524, "MEAN_MOTION_DDOT": 0}, "tle": {"line1": "1 66428U 25259G   25344.92124248  .00079524  00000+0  18896-2 0  9999", "line2": "2 66428  42.9976  58.4108 0001048 271.5958  88.4779 15.40725826  5885"}}, "geometry": {"type": "Point", "coordinates": [127.38427185112326, 41.55330668230122]}}, {"type": "Feature", "properties": {"norad_id": 66429, "name": "STARLINK-35533", "group": "last-30-days", "lat": 42.97078355418227, "lon": 144.03598336869445, "alt_km": 437.1156387733099, "timestamp": "2025-12-11T10:53:14.618826+00:00", "meta": {"OBJECT_NAME": "STARLINK-35533", "OBJECT_ID": "2025-259H", "EPOCH": "2025-12-10T22:03:21.989664", "MEAN_MOTION": 15.40709535, "ECCENTRICITY": 3.81e-05, "INCLINATION": 42.9981, "RA_OF_ASC_NODE": 58.3901, "ARG_OF_PERICENTER": 325.4753, "MEAN_ANOMALY": 34.6079, "EPHEMERIS_TYPE": 0, "CLASSIFICATION_TYPE": "U", "NORAD_CAT_ID": 66429, "ELEMENT_SET_NO": 999, "REV_AT_EPOCH": 588, "BSTAR": 0.0015445, "MEAN_MOTION_DOT": 0.00064786, "MEAN_MOTION_DDOT": 0}, "tle": {"line1": "1 66429U 25259H   25344.91900451  .00064786  00000+0  15445-2 0  9998", "line2": "2 66429  42.9981  58.3901 0000381 325.4753  34.6079 15.40709535  5888"}}, "geometry": {"type": "Point", "coordinates": [144.03598336869445, 42.97078355418227]}}, {"type": "Feature", "properties": {"norad_id": 66430, "name": "STARLINK-35470", "group": "last-30-days", "lat": 41.93361707545613, "lon": 160.70309973898867, "alt_km": 438.4218475922362, "timestamp": "2025-12-11T10:53:14.618843+00:00", "meta": {"OBJECT_NAME": "STARLINK-35470", "OBJECT_ID": "2025-259J", "EPOCH": "2025-12-11T00:00:02.998944", "MEAN_MOTION": 15.40730999, "ECCENTRICITY": 0.00012, "INCLINATION": 43.0006, "RA_OF_ASC_NODE": 57.8929, "ARG_OF_PERICENTER": 281.4628, "MEAN_ANOMALY": 181.0376, "EPHEMERIS_TYPE": 0, "CLASSIFICATION_TYPE": "U", "NORAD_CAT_ID": 66430, "ELEMENT_SET_NO": 999, "REV_AT_EPOCH": 600, "BSTAR": -0.0027136, "MEAN_MOTION_DOT": -0.00112122, "MEAN_MOTION_DDOT": 0}, "tle": {"line1": "1 66430U 25259J   25345.00003471 -.00112122  00000+0 -27136-2 0  9997", "line2": "2 66430  43.0006  57.8929 0001200 281.4628 181.0376 15.40730999  6007"}}, "geometry": {"type": "Point", "coordinates": [160.70309973898867, 41.93361707545613]}}, {"type": "Feature", "properties": {"norad_id": 66431, "name": "STARLINK-35439", "group": "last-30-days", "lat": 38.5636624381021, "lon": 176.42737541297976, "alt_km": 438.8835250256343, "timestamp": "2025-12-11T10:53:14.618855+00:00", "meta": {"OBJECT_NAME": "STARLINK-35439", "OBJECT_ID": "2025-259K", "EPOCH": "2025-12-11T00:00:02.998944", "MEAN_MOTION": 15.4074678, "ECCENTRICITY": 0.0001176, "INCLINATION": 43.0006, "RA_OF_ASC_NODE": 57.8609, "ARG_OF_PERICENTER": 266.7236, "MEAN_ANOMALY": 208.2287, "EPHEMERIS_TYPE": 0, "CLASSIFICATION_TYPE": "U", "NORAD_CAT_ID": 66431, "ELEMENT_SET_NO": 999, "REV_AT_EPOCH": 600, "BSTAR": -0.0033359, "MEAN_MOTION_DOT": -0.00137385, "MEAN_MOTION_DDOT": 0}, "tle": {"line1": "1 66431U 25259K   25345.00003471 -.00137385  00000+0 -33359-2 0  9990", "line2": "2 66431  43.0006  57.8609 0001176 266.7236 208.2287 15.40746780  6004"}}, "geometry": {"type": "Point", "coordinates": [176.42737541297976, 38.5636624381021]}}]}